FORMOSAT 7-1            
1 44349U 19036L   26193.38348106  .00001367  00000+0  91205-4 0  9994
2 44349  23.9966 222.5156 0001059 107.3365 252.7252 14.96605914388430
FORMOSAT 7-4            
1 44350U 19036M   26193.60608600  .00001465  00000+0  99534-4 0  9991
2 44350  23.9982 283.1246 0001350 117.8855 242.1782 14.96604378387889
FORMOSAT 7-2            
1 44351U 19036N   26193.62845068  .00001571  00000+0  10864-3 0  9991
2 44351  23.9995 337.2875 0000788 111.0659 248.9926 14.96603024387404
FORMOSAT 7-6            
1 44353U 19036Q   26193.22799999  .00001523  00000+0  10449-3 0  9996
2 44353  23.9964 160.7962 0001246  45.8851 314.1752 14.96605816385576
FORMOSAT 7-5            
1 44358U 19036V   26193.00538351  .00001610  00000+0  11211-3 0  9995
2 44358  23.9982 101.0484 0000489 115.9872 244.0679 14.96584241386071
METEOR-M2 2             
1 44387U 19038A   26193.81421380 -.00000069  00000+0 -10047-4 0  9997
2 44387  98.9154 181.4788 0000900   8.4246 351.6947 14.24372043364945
GLOBAL-4                
1 44499U 19054E   26193.85452297  .00045604  00000+0  42086-3 0  9993
2 44499  45.0059  88.0251 0004967 180.7607 179.3284 15.66900563384385
ZY-1 02D                
1 44528U 19059A   26193.86172711 -.00000091  00000+0 -15944-4 0  9999
2 44528  98.6721 255.4058 0003195 308.6988  51.3911 14.35267253358023
TAURUS-1 (JINNIUZUO 1)  
1 44530U 19059C   26193.79743792  .00003110  00000+0  50012-3 0  9994
2 44530  98.6427   0.2218 0007851 223.7202 136.3382 14.72354061362411
ZHUHAI-1 03B            
1 44536U 19060C   26193.86242707  .00024462  00000+0  35824-3 0  9997
2 44536  97.5543 353.0455 0008281 214.0171 146.0553 15.55537563380311
ZHUHAI-1 03D            
1 44538U 19060E   26193.84517652  .00025089  00000+0  42892-3 0  9990
2 44538  97.5390 344.9236 0007366 199.6418 160.4551 15.51246312380058
ZHUHAI-1 03E            
1 44539U 19060F   26193.88494141  .00012768  00000+0  30269-3 0  9997
2 44539  97.5632 344.7428 0004387 287.1845  72.8921 15.41875013379720
GAOFEN-7                
1 44703U 19072A   26193.85022134  .00002328  00000+0  10632-3 0  9992
2 44703  97.5710 254.5713 0017562 312.7923  47.1835 15.21504822371542
JILIN-1 GAOFEN 2A       
1 44777U 19075A   26193.80693730  .00009570  00000+0  24210-3 0  9990
2 44777  97.4969 278.2065 0005419   4.1604 355.9685 15.39974702368824
NINGXIA-1 1             
1 44779U 19076A   26193.83435139 -.00000112  00000+0  11553-4 0  9994
2 44779  45.0063  65.2386 0011612 279.2746  80.6774 14.02041710341458
NINGXIA-1 5             
1 44783U 19076E   26193.84676076 -.00000045  00000+0  55274-4 0  9990
2 44783  45.0062  64.5155 0011436 270.3162  89.6361 14.02089641341373
KL-ALPHA A              
1 44785U 19077A   26193.87221382  .00000076  00000+0  90436-4 0  9994
2 44785  88.9240 219.7554 0012605  42.7768 317.4365 13.56045578329212
CARTOSAT-3              
1 44804U 19081A   26193.84396204  .00001912  00000+0  93630-4 0  9993
2 44804  97.4299 255.2961 0013222  68.5429 291.7214 15.19311961367364
JILIN-1 GAOFEN 2B       
1 44836U 19086A   26193.80715852  .00003984  00000+0  18258-3 0  9996
2 44836  97.4878 265.6403 0013028 224.6898 135.3288 15.20984208364382
TIANQIN 1 (CAS-6)       
1 44879U 19093A   26193.84915694  .00001623  00000+0  15157-3 0  9994
2 44879  97.7805 277.5044 0010150 335.8180  24.2563 14.95551321355881
ETRSS-1                 
1 44880U 19093B   26193.84842880  .00001766  00000+0  16252-3 0  9997
2 44880  97.7822 277.9856 0010247 335.6202  24.4533 14.95998431355894
TIANYAN 01              
1 44881U 19093C   26193.82511174  .00000790  00000+0  95095-4 0  9994
2 44881  97.7527 265.4309 0013794   9.3515 350.7955 14.86559235355229
TIANYAN 02              
1 44882U 19093D   26193.84342965  .00002982  00000+0  21148-3 0  9999
2 44882  97.7944 288.8850 0012070 297.9070  62.0934 15.05517886356476
CBERS 4A                
1 44883U 19093E   26193.82387608  .00000805  00000+0  10973-3 0  9997
2 44883  98.0187 261.2848 0001336 132.4433 227.6892 14.81443105354870
WEILAI 1R               
1 44884U 19093F   26193.85767735  .00002706  00000+0  21716-3 0  9993
2 44884  97.7886 283.7895 0015884 316.3293  43.6672 15.00855152356273
FLORIPASAT-1            
1 44885U 19093G   26193.83965193  .00002080  00000+0  15443-3 0  9995
2 44885  97.7932 288.2632 0010963 351.5164   8.5874 15.04130713356509
SHUNTIAN                
1 44886U 19093H   26193.83888660  .00000958  00000+0  92291-4 0  9998
2 44886  97.8008 281.8701 0011225 345.6472  14.4428 14.95270644356013
