OBJECT_NAME,OBJECT_ID,EPOCH,MEAN_MOTION,ECCENTRICITY,INCLINATION,RA_OF_ASC_NODE,ARG_OF_PERICENTER,MEAN_ANOMALY,EPHEMERIS_TYPE,CLASSIFICATION_TYPE,NORAD_CAT_ID,ELEMENT_SET_NO,REV_AT_EPOCH,BSTAR,MEAN_MOTION_DOT,MEAN_MOTION_DDOT
FORMOSAT 7-1,2019-036L,2026-07-12T09:12:12.763584,14.96605914,.00010592,23.9966,222.5156,107.3365,252.7252,0,U,44349,999,38843,.91205467E-4,.1367E-4,0
FORMOSAT 7-4,2019-036M,2026-07-12T14:32:45.830400,14.96604378,.000135,23.9982,283.1246,117.8855,242.1782,0,U,44350,999,38788,.99534E-4,.1465E-4,0
FORMOSAT 7-2,2019-036N,2026-07-12T15:04:58.138752,14.96603024,.0000788,23.9995,337.2875,111.0659,248.9926,0,U,44351,999,38740,.10864E-3,.1571E-4,0
FORMOSAT 7-6,2019-036Q,2026-07-12T05:28:19.199136,14.96605816,.0001246,23.9964,160.7962,45.8851,314.1752,0,U,44353,999,38557,.10449E-3,.1523E-4,0
FORMOSAT 7-5,2019-036V,2026-07-12T00:07:45.135264,14.96584241,.00004896,23.9982,101.0484,115.9872,244.0679,0,U,44358,999,38607,.11211461E-3,.161E-4,0
METEOR-M2 2,2019-038A,2026-07-12T19:32:28.072320,14.24372043,.00009,98.9154,181.4788,8.4246,351.6947,0,U,44387,999,36494,-.10047E-4,-.69E-6,0
GLOBAL-4,2019-054E,2026-07-12T20:30:30.784608,15.66900563,.0004967,45.0059,88.0251,180.7607,179.3284,0,U,44499,999,38438,.42086E-3,.45604E-3,0
ZY-1 02D,2019-059A,2026-07-12T20:40:53.222304,14.35267253,.0003195,98.6721,255.4058,308.6988,51.3911,0,U,44528,999,35802,-.15944E-4,-.91E-6,0
TAURUS-1 (JINNIUZUO 1),2019-059C,2026-07-12T19:08:18.636288,14.72354061,.0007851,98.6427,0.2218,223.7202,136.3382,0,U,44530,999,36241,.50012E-3,.311E-4,0
ZHUHAI-1 03B,2019-060C,2026-07-12T20:41:53.698848,15.55537563,.0008281,97.5543,353.0455,214.0171,146.0553,0,U,44536,999,38031,.35824E-3,.24462E-3,0
ZHUHAI-1 03D,2019-060E,2026-07-12T20:17:03.251328,15.51246312,.0007366,97.5390,344.9236,199.6418,160.4551,0,U,44538,999,38005,.42892E-3,.25089E-3,0
ZHUHAI-1 03E,2019-060F,2026-07-12T21:14:18.937824,15.41875013,.0004387,97.5632,344.7428,287.1845,72.8921,0,U,44539,999,37972,.30269E-3,.12768E-3,0
GAOFEN-7,2019-072A,2026-07-12T20:24:19.123776,15.21504822,.0017562,97.5710,254.5713,312.7923,47.1835,0,U,44703,999,37154,.10632E-3,.2328E-4,0
JILIN-1 GAOFEN 2A,2019-075A,2026-07-12T19:21:59.382720,15.39974702,.0005419,97.4969,278.2065,4.1604,355.9685,0,U,44777,999,36882,.2421E-3,.957E-4,0
NINGXIA-1 1,2019-076A,2026-07-12T20:01:27.960096,14.02041710,.0011612,45.0063,65.2386,279.2746,80.6774,0,U,44779,999,34145,.11553E-4,-.112E-5,0
NINGXIA-1 5,2019-076E,2026-07-12T20:19:20.129664,14.02089641,.0011436,45.0062,64.5155,270.3162,89.6361,0,U,44783,999,34137,.55274E-4,-.45E-6,0
KL-ALPHA A,2019-077A,2026-07-12T20:55:59.274048,13.56045578,.0012605,88.9240,219.7554,42.7768,317.4365,0,U,44785,999,32921,.90436E-4,.76E-6,0
CARTOSAT-3,2019-081A,2026-07-12T20:15:18.320256,15.19311961,.0013222,97.4299,255.2961,68.5429,291.7214,0,U,44804,999,36736,.9363E-4,.1912E-4,0
JILIN-1 GAOFEN 2B,2019-086A,2026-07-12T19:22:18.496128,15.20984208,.0013028,97.4878,265.6403,224.6898,135.3288,0,U,44836,999,36438,.18258E-3,.3984E-4,0
TIANQIN 1 (CAS-6),2019-093A,2026-07-12T20:22:47.159616,14.95551321,.001015,97.7805,277.5044,335.8180,24.2563,0,U,44879,999,35588,.15157E-3,.1623E-4,0
ETRSS-1,2019-093B,2026-07-12T20:21:44.248320,14.95998431,.0010247,97.7822,277.9856,335.6202,24.4533,0,U,44880,999,35589,.16252E-3,.1766E-4,0
TIANYAN 01,2019-093C,2026-07-12T19:48:09.654336,14.86559235,.0013794,97.7527,265.4309,9.3515,350.7955,0,U,44881,999,35522,.95095E-4,.79E-5,0
TIANYAN 02,2019-093D,2026-07-12T20:14:32.321760,15.05517886,.001207,97.7944,288.8850,297.9070,62.0934,0,U,44882,999,35647,.21148E-3,.2982E-4,0
CBERS 4A,2019-093E,2026-07-12T19:46:22.893312,14.81443105,.0001336,98.0187,261.2848,132.4433,227.6892,0,U,44883,999,35487,.10973E-3,.805E-5,0
WEILAI 1R,2019-093F,2026-07-12T20:35:03.323040,15.00855152,.0015884,97.7886,283.7895,316.3293,43.6672,0,U,44884,999,35627,.21716E-3,.2706E-4,0
FLORIPASAT-1,2019-093G,2026-07-12T20:09:05.926752,15.04130713,.0010963,97.7932,288.2632,351.5164,8.5874,0,U,44885,999,35650,.15443E-3,.208E-4,0
SHUNTIAN,2019-093H,2026-07-12T20:07:59.802240,14.95270644,.0011225,97.8008,281.8701,345.6472,14.4428,0,U,44886,999,35601,.92291E-4,.958E-5,0
